OBJECT_NAME,OBJECT_ID,EPOCH,MEAN_MOTION,ECCENTRICITY,INCLINATION,RA_OF_ASC_NODE,ARG_OF_PERICENTER,MEAN_ANOMALY,EPHEMERIS_TYPE,CLASSIFICATION_TYPE,NORAD_CAT_ID,ELEMENT_SET_NO,REV_AT_EPOCH,BSTAR,MEAN_MOTION_DOT,MEAN_MOTION_DDOT
STARLINK-4474,2022-101W,2026-06-13T19:21:21.143808,15.08827841,.0001371,53.1620,352.5587,91.6409,268.4739,0,U,53547,999,21148,-.27653E-4,-.728E-5,0
STARLINK-4513,2022-101X,2026-06-13T19:00:08.615232,15.08836748,.0001283,53.1597,352.6255,84.6145,275.4993,0,U,53548,999,21081,.52129E-4,.542E-5,0
STARLINK-4514,2022-101AA,2026-06-13T19:05:26.784960,15.08833249,.0001315,53.1604,352.6079,89.2269,270.8873,0,U,53551,999,21147,.10256E-4,-.125E-5,0
STARLINK-4495,2022-101AB,2026-06-13T20:19:38.188128,15.08835482,.0001347,53.1601,352.3781,89.6547,270.4599,0,U,53552,999,21147,.58319E-4,.64E-5,0
STARLINK-4501,2022-101AC,2026-06-13T20:09:00.990720,15.08833876,.0001105,53.1596,352.2819,94.6162,265.4956,0,U,53553,999,21148,.60456E-4,.674E-5,0
STARLINK-4506,2022-101AD,2026-06-13T20:10:25.383648,15.08845416,.0001253,53.1596,352.4119,94.2308,265.8826,0,U,53554,999,21082,.4996E-5,-.208E-5,0
STARLINK-4504,2022-101AE,2026-06-13T20:24:56.115936,15.08834695,.0001285,53.1599,352.3594,88.9397,271.1741,0,U,53555,999,21148,.11561E-4,-.104E-5,0
STARLINK-4505,2022-101AF,2026-06-13T19:58:26.577120,15.08830964,.0001277,53.1600,352.4429,95.6793,264.4344,0,U,53556,999,21082,.25046E-4,.111E-5,0
STARLINK-4502,2022-101AG,2026-06-13T20:14:20.301792,15.08834196,.0001201,53.1597,352.3928,88.5617,271.5512,0,U,53557,999,21147,.28128E-4,.16E-5,0
STARLINK-4494,2022-101AH,2026-06-13T16:50:55.982976,15.08833948,.0001299,53.1598,347.7502,92.5774,267.5366,0,U,53558,999,21153,.93875E-4,.1206E-4,0
STARLINK-4564,2022-101AK,2026-06-13T19:28:00.178752,15.08833632,.0001259,53.1599,342.7232,89.1558,270.9578,0,U,53560,999,21095,.29447E-4,.181E-5,0
STARLINK-4563,2022-101AL,2026-06-13T19:53:08.708928,15.08829983,.000125,53.1611,352.4581,91.4470,268.6665,0,U,53561,999,21082,.23662E-4,.89E-6,0
STARLINK-4565,2022-101AM,2026-06-13T20:00:01.999008,15.11560220,.0002152,53.1590,342.5637,75.7669,73.2831,0,U,53562,999,583,.25464E-2,.43657E-3,0
STARLINK-4561,2022-101AN,2026-06-13T19:33:18.618912,15.08832043,.0001319,53.1610,342.7440,87.2926,272.8217,0,U,53563,999,21095,.22143E-4,.64E-6,0
STARLINK-4577,2022-101AP,2026-06-13T19:12:05.732640,15.08824485,.0001182,53.1593,342.6549,87.5305,272.5822,0,U,53564,999,21095,-.4387E-4,-.986E-5,0
STARLINK-4575,2022-101AQ,2026-06-13T19:24:04.817376,15.08830533,.0001353,53.1595,342.7003,69.8327,290.2810,0,U,53565,999,21161,.27522E-4,.15E-5,0
STARLINK-4576,2022-101AR,2026-06-13T17:25:57.018432,15.08936740,.0001411,53.1603,342.9079,104.5049,255.6099,0,U,53566,999,21163,.90061E-3,.14113E-3,0
STARLINK-4585,2022-101AS,2026-06-13T19:17:23.657856,15.08829724,.0001243,53.1606,342.6754,99.7633,260.3498,0,U,53567,999,21095,.21512E-4,.54E-6,0
STARLINK-4583,2022-101AT,2026-06-13T18:45:33.247584,15.08829678,.0001226,53.1609,342.5387,92.3260,267.7872,0,U,53568,999,21164,-.32055E-4,-.798E-5,0
STARLINK-4582,2022-101AU,2026-06-13T19:06:46.844064,15.08837650,.0001156,53.1599,342.6262,68.4172,291.6942,0,U,53569,999,21162,-.38992E-4,-.908E-5,0
STARLINK-4550,2022-101AV,2026-06-13T20:26:15.781920,15.08848072,.0001244,53.1590,342.2650,94.4942,265.6191,0,U,53570,999,21165,.42562E-3,.6494E-4,0
STARLINK-4584,2022-101AW,2026-06-13T17:20:47.055840,15.08825687,.0001069,53.1617,342.8833,90.7207,269.3907,0,U,53571,999,21163,.1749E-4,-.1E-6,0
STARLINK-4555,2022-101AX,2026-06-13T18:19:01.752672,15.08828986,.0001323,53.1606,342.4270,91.5868,268.5275,0,U,53572,999,21095,-.30532E-4,-.774E-5,0
STARLINK-4559,2022-101AZ,2026-06-13T18:24:19.740960,15.08832852,.0001296,53.1602,342.4508,82.9162,277.1977,0,U,53574,999,21095,-.22502E-4,-.646E-5,0
STARLINK-4551,2022-101BA,2026-06-13T18:34:56.661024,15.08830072,.0001329,53.1594,342.4982,67.2967,292.8164,0,U,53575,999,21164,-.20238E-4,-.61E-5,0
STARLINK-4581,2022-101BB,2026-06-13T18:36:19.046016,15.08833665,.0001299,53.1608,342.4964,91.4401,268.6739,0,U,53576,999,21177,.26791E-6,-.284E-5,0
STARLINK-4553,2022-101BC,2026-06-13T18:29:37.997952,15.08833033,.0001348,53.1616,342.4689,95.9142,264.2003,0,U,53577,999,21177,.41224E-5,-.222E-5,0
STARLINK-4556,2022-101BD,2026-06-13T18:13:43.260672,15.08830193,.0001271,53.1595,342.4047,87.7270,272.3867,0,U,53578,999,21095,-.13651E-4,-.505E-5,0
STARLINK-4580,2022-101BE,2026-06-13T18:08:24.442080,15.08836275,.000132,53.1608,342.3792,87.4935,272.6207,0,U,53579,999,21095,.44484E-4,.42E-5,0
