STARLINK-4474           
1 53547U 22101W   26164.80649472 -.00000728  00000+0 -27653-4 0  9994
2 53547  53.1620 352.5587 0001371  91.6409 268.4739 15.08827841211488
STARLINK-4513           
1 53548U 22101X   26164.79176638  .00000542  00000+0  52129-4 0  9990
2 53548  53.1597 352.6255 0001283  84.6145 275.4993 15.08836748210818
STARLINK-4514           
1 53551U 22101AA  26164.79544890 -.00000125  00000+0  10256-4 0  9996
2 53551  53.1604 352.6079 0001315  89.2269 270.8873 15.08833249211471
STARLINK-4495           
1 53552U 22101AB  26164.84696977  .00000640  00000+0  58319-4 0  9990
2 53552  53.1601 352.3781 0001347  89.6547 270.4599 15.08835482211476
STARLINK-4501           
1 53553U 22101AC  26164.83959480  .00000674  00000+0  60456-4 0  9993
2 53553  53.1596 352.2819 0001105  94.6162 265.4956 15.08833876211489
STARLINK-4506           
1 53554U 22101AD  26164.84057157 -.00000208  00000+0  49960-5 0  9997
2 53554  53.1596 352.4119 0001253  94.2308 265.8826 15.08845416210827
STARLINK-4504           
1 53555U 22101AE  26164.85064949 -.00000104  00000+0  11561-4 0  9996
2 53555  53.1599 352.3594 0001285  88.9397 271.1741 15.08834695211486
STARLINK-4505           
1 53556U 22101AF  26164.83225205  .00000111  00000+0  25046-4 0  9999
2 53556  53.1600 352.4429 0001277  95.6793 264.4344 15.08830964210820
STARLINK-4502           
1 53557U 22101AG  26164.84329053  .00000160  00000+0  28128-4 0  9995
2 53557  53.1597 352.3928 0001201  88.5617 271.5512 15.08834196211471
STARLINK-4494           
1 53558U 22101AH  26164.70203684  .00001206  00000+0  93875-4 0  9995
2 53558  53.1598 347.7502 0001299  92.5774 267.5366 15.08833948211538
STARLINK-4564           
1 53560U 22101AK  26164.81111318  .00000181  00000+0  29447-4 0  9997
2 53560  53.1599 342.7232 0001259  89.1558 270.9578 15.08833632210953
STARLINK-4563           
1 53561U 22101AL  26164.82857302  .00000089  00000+0  23662-4 0  9999
2 53561  53.1611 352.4581 0001250  91.4470 268.6665 15.08829983210825
STARLINK-4565           
1 53562U 22101AM  26164.83335647  .00043657  00000+0  25464-2 0  9992
2 53562  53.1590 342.5637 0002152  75.7669  73.2831 15.11560220  5839
STARLINK-4561           
1 53563U 22101AN  26164.81479883  .00000064  00000+0  22143-4 0  9990
2 53563  53.1610 342.7440 0001319  87.2926 272.8217 15.08832043210952
STARLINK-4577           
1 53564U 22101AP  26164.80006635 -.00000986  00000+0 -43870-4 0  9996
2 53564  53.1593 342.6549 0001182  87.5305 272.5822 15.08824485210954
STARLINK-4575           
1 53565U 22101AQ  26164.80838909  .00000150  00000+0  27522-4 0  9991
2 53565  53.1595 342.7003 0001353  69.8327 290.2810 15.08830533211619
STARLINK-4576           
1 53566U 22101AR  26164.72635438  .00014113  00000+0  90061-3 0  9996
2 53566  53.1603 342.9079 0001411 104.5049 255.6099 15.08936740211631
STARLINK-4585           
1 53567U 22101AS  26164.80374604  .00000054  00000+0  21512-4 0  9996
2 53567  53.1606 342.6754 0001243  99.7633 260.3498 15.08829724210952
STARLINK-4583           
1 53568U 22101AT  26164.78163481 -.00000798  00000+0 -32055-4 0  9994
2 53568  53.1609 342.5387 0001226  92.3260 267.7872 15.08829678211645
STARLINK-4582           
1 53569U 22101AU  26164.79637551 -.00000908  00000+0 -38992-4 0  9999
2 53569  53.1599 342.6262 0001156  68.4172 291.6942 15.08837650211626
STARLINK-4550           
1 53570U 22101AV  26164.85157155  .00006494  00000+0  42562-3 0  9996
2 53570  53.1590 342.2650 0001244  94.4942 265.6191 15.08848072211658
STARLINK-4584           
1 53571U 22101AW  26164.72276685 -.00000010  00000+0  17490-4 0  9995
2 53571  53.1617 342.8833 0001069  90.7207 269.3907 15.08825687211637
STARLINK-4555           
1 53572U 22101AX  26164.76321473 -.00000774  00000+0 -30532-4 0  9996
2 53572  53.1606 342.4270 0001323  91.5868 268.5275 15.08828986210950
STARLINK-4559           
1 53574U 22101AZ  26164.76689515 -.00000646  00000+0 -22502-4 0  9998
2 53574  53.1602 342.4508 0001296  82.9162 277.1977 15.08832852210954
STARLINK-4551           
1 53575U 22101BA  26164.77426691 -.00000610  00000+0 -20238-4 0  9999
2 53575  53.1594 342.4982 0001329  67.2967 292.8164 15.08830072211648
STARLINK-4581           
1 53576U 22101BB  26164.77522044 -.00000284  00000+0  26791-6 0  9997
2 53576  53.1608 342.4964 0001299  91.4401 268.6739 15.08833665211777
STARLINK-4553           
1 53577U 22101BC  26164.77057868 -.00000222  00000+0  41224-5 0  9994
2 53577  53.1616 342.4689 0001348  95.9142 264.2003 15.08833033211772
STARLINK-4556           
1 53578U 22101BD  26164.75952848 -.00000505  00000+0 -13651-4 0  9992
2 53578  53.1595 342.4047 0001271  87.7270 272.3867 15.08830193210954
STARLINK-4580           
1 53579U 22101BE  26164.75583845  .00000420  00000+0  44484-4 0  9992
2 53579  53.1608 342.3792 0001320  87.4935 272.6207 15.08836275210954
